STARLINK-37592          
1 69025U 26101A   26155.75003471 -.01881598  00000+0 -52048-1 0  9999
2 69025  97.2846  10.7162 0001913  98.2084 217.9785 15.40319155  5954
STARLINK-37637          
1 69026U 26101B   26155.13220733  .00056994  00000+0  10410-2 0  9993
2 69026  97.2821  10.0374 0001815  91.1192 269.0268 15.49216958  4565
STARLINK-37548          
1 69027U 26101C   26155.17157969  .00037976  00000+0  69579-3 0  9998
2 69027  97.2824  10.1380 0001875  73.3497 286.7960 15.49219921  4572
STARLINK-37634          
1 69028U 26101D   26155.75003471  .00002411  00000+0  46029-4 0  9993
2 69028  97.2845  10.7819 0001803  91.1226  29.7147 15.49155866  5950
STARLINK-37635          
1 69029U 26101E   26155.75003471 -.02396479  00000+0 -73083-1 0  9995
2 69029  97.2842  10.7446 0001619 102.0006 273.5716 15.37639513  5928
STARLINK-37615          
1 69030U 26101F   26155.75003471 -.01894500  00000+0 -46088-1 0  9999
2 69030  97.2845  10.7590 0001735  89.9699 332.3566 15.44166897  5951
STARLINK-37240          
1 69031U 26101G   26155.11400475  .00038227  00000+0  70129-3 0  9993
2 69031  97.2864  10.0622 0001806 103.0770 257.0683 15.49181521  4564
STARLINK-37596          
1 69032U 26101H   26155.14850933  .00055944  00000+0  10231-2 0  9997
2 69032  97.2845  10.0190 0001553 111.9865 248.1551 15.49185736  4563
STARLINK-37591          
1 69033U 26101J   26155.11587786  .00059389  00000+0  10848-2 0  9999
2 69033  97.2827  10.0620 0002578 137.5080 222.6371 15.49204659  4566
STARLINK-37611          
1 69034U 26101K   26155.75003471 -.02500976  00000+0 -58325-1 0  9992
2 69034  97.2847  10.7243 0001826 100.9676 245.8685 15.45801809  5952
STARLINK-37512          
1 69035U 26101L   26155.59026139  .00061062  00000+0  11149-2 0  9999
2 69035  97.2834  10.4876 0001339  15.9223 344.2070 15.49210603  4636
STARLINK-37609          
1 69036U 26101M   26155.59744900  .00030665  00000+0  56218-3 0  9995
2 69036  97.2833  10.4786 0001524  13.7451 346.3841 15.49245275  4633
STARLINK-37608          
1 69037U 26101N   26155.11651002  .00053729  00000+0  98245-3 0  9996
2 69037  97.2830  10.0589 0002303  86.9793 273.1722 15.49198960  4560
STARLINK-37466          
1 69038U 26101P   26155.60123704  .00032130  00000+0  58936-3 0  9990
2 69038  97.2821  10.4722 0001570  47.8282 312.3102 15.49220919  4634
STARLINK-37612          
1 69039U 26101Q   26155.75003471 -.02668992  00000+0 -66942-1 0  9994
2 69039  97.2841  10.7157 0001724  96.2614 234.3856 15.43934001  5953
STARLINK-37616          
1 69040U 26101R   26155.75003471 -.02667413  00000+0 -86982-1 0  9999
2 69040  97.2839  10.7299 0001989  95.1928 255.1596 15.35358357  5955
STARLINK-37614          
1 69041U 26101S   26155.56661095  .00045051  00000+0  82505-3 0  9994
2 69041  97.2845  10.5202 0001433  45.4171 314.7197 15.49196969  4634
STARLINK-37644          
1 69042U 26101T   26155.17733098  .00053924  00000+0  98667-3 0  9999
2 69042  97.2853  10.1303 0001387  96.6943 263.4466 15.49180261  4575
STARLINK-37571          
1 69043U 26101U   26155.17535785  .00077551  00000+0  14128-2 0  9994
2 69043  97.2833  10.1336 0001676  85.4137 274.7305 15.49203759  4577
STARLINK-37664          
1 69044U 26101V   26155.14740297  .00046466  00000+0  85058-3 0  9990
2 69044  97.2824  10.0188 0002760  74.6238 285.5318 15.49200131  4563
STARLINK-37667          
1 69045U 26101W   26155.75003471 -.02513976  00000+0 -68461-1 0  9990
2 69045  97.2848  10.8045 0001711  81.0463  85.5426 15.41253923  5958
STARLINK-37666          
1 69046U 26101X   26155.75003471 -.02697997  00000+0 -63271-1 0  9991
2 69046  97.2845  10.8250 0001849  98.0463 127.8035 15.45936743  5952
STARLINK-37576          
1 69047U 26101Y   26155.75003471 -.02616792  00000+0 -59060-1 0  9997
2 69047  97.2839  10.8354 0001960 101.0280 146.5060 15.46918758  5927
STARLINK-37663          
1 69048U 26101Z   26155.75242735  .00087020  00000+0  15832-2 0  9998
2 69048  97.2876  10.7290 0001576  84.9975 275.1456 15.49203859  4660
TIANZHOU-10             
1 69049U 26102A   26155.11352728  .00025633  00000+0  30785-3 0  9991
2 69049  41.4695  41.5326 0009764 338.4220  21.6207 15.60233359  3770
QIANFAN-127             
1 69073U 26104A   26155.73886265  .00000114  00000+0  45169-4 0  9996
2 69073  88.9863 343.0272 0005225 139.8403 220.3175 14.21690599  3326
QIANFAN-128             
1 69074U 26104B   26155.65068193  .00000112  00000+0  47855-4 0  9992
2 69074  88.9864 343.0516 0004504 137.0850 223.0691 14.18045631  3302
QIANFAN-129             
1 69075U 26104C   26155.70039391  .00000131  00000+0  49452-4 0  9993
2 69075  88.9863 343.0213 0004844 146.0114 214.1390 14.25500193  3322
QIANFAN-130             
1 69076U 26104D   26155.70860693  .00000116  00000+0  48750-4 0  9994
2 69076  88.9863 343.0414 0004566 127.9213 232.2390 14.18734875  3313
QIANFAN-131             
1 69077U 26104E   26155.75320311  .00000103  00000+0  41360-4 0  9994
2 69077  88.9862 343.0292 0004071 143.3614 216.7856 14.20505455  3323
